STARLINK-31520          
1 59210U 24046K   26068.52933173 -.00002188  00000+0 -61778-4 0  9991
2 59210  53.1606 156.1783 0001257  93.8100 266.3045 15.30191029113021
KUIPER-00175            
1 67135U 25301C   26068.97960463  .00019968  00000+0  66732-3 0  9998
2 67135  51.8781  63.6978 0002279  50.5695 309.5490 15.30996371 13854
